IRIDIUM 150             
1 43257U 18030J   23275.45846923  .00000482  00000+0  16493-3 0  9992
2 43257  86.4013 343.7022 0001848  89.4897 270.6511 14.34215525288464
IRIDIUM 143             
1 43258U 18030K   23274.67198832  .00000482  00000+0  16496-3 0  9998
2 43258  86.4019 344.0837 0002069  98.1146 262.0284 14.34215949288269
IRIDIUM 161             
1 43478U 18047C   23275.09519333  .00000575  00000+0  16504-3 0  9993
2 43478  86.4506 141.8863 0002157  81.4827 278.6619 14.43294424282472
IRIDIUM 152             
1 43479U 18047D   23275.76099924  .00000414  00000+0  14091-3 0  9998
2 43479  86.3978 141.4681 0001987  91.7742 268.3681 14.34221457280827
IRIDIUM 147             
1 43480U 18047E   23275.34872219  .00000359  00000+0  12119-3 0  9997
2 43480  86.3980 141.6281 0002342  82.5888 277.5574 14.34214400280750
IRIDIUM 110             
1 43481U 18047F   23275.35507381  .00000325  00000+0  10916-3 0  9990
2 43481  86.3984 141.6915 0002293  79.0475 281.0979 14.34219339280741
IRIDIUM 162             
1 43482U 18047G   23275.36619829  .00000612  00000+0  17582-3 0  9998
2 43482  86.4504 141.6766 0002134  83.3689 276.7755 14.43293120282503
IRIDIUM 160             
1 43569U 18061A   23274.81253467  .00000135  00000+0  41272-4 0  9995
2 43569  86.3922 110.2908 0002266  93.4994 266.6461 14.34217813271560
